[
    {
        "Altitude(m)": 558431.1542123056,
        "Argument of Periapsis(deg)": 0.0,
        "Eccentricity": 0.0,
        "Inclination(deg)": 53.0,
        "Latitude(deg)": 46.73418072444391,
        "Longitude(deg)": 77.80171109034221,
        "Mean Anomaly(deg)": 65.45449999999998,
        "RAAN(deg)": 125.00000000000001,
        "Satellite Name": "Starlink Shell 1 554",
        "Satellite Number": 554,
        "Semi-Major Axis(m)": 6931778.249405717,
        "Time(s)": 0
    },
    {
        "Altitude(m)": 558499.6638684421,
        "Argument of Periapsis(deg)": 0.00034857847951123687,
        "Eccentricity": 0.0,
        "Inclination(deg)": 53.0,
        "Latitude(deg)": 47.03466614353923,
        "Longitude(deg)": 78.56368819097602,
        "Mean Anomaly(deg)": 66.08133120355673,
        "RAAN(deg)": 124.99948122992254,
        "Satellite Name": "Starlink Shell 1 554",
        "Satellite Number": 554,
        "Semi-Major Axis(m)": 6931778.249405717,
        "Time(s)": 10
    },
    {
        "Altitude(m)": 558566.9549985467,
        "Argument of Periapsis(deg)": 0.0006971569590224737,
        "Eccentricity": 0.0,
        "Inclination(deg)": 53.0,
        "Latitude(deg)": 47.32944037418161,
        "Longitude(deg)": 79.33463903888524,
        "Mean Anomaly(deg)": 66.70816240711339,
        "RAAN(deg)": 124.99896245984506,
        "Satellite Name": "Starlink Shell 1 554",
        "Satellite Number": 554,
        "Semi-Major Axis(m)": 6931778.249405717,
        "Time(s)": 20
    },
    {
        "Altitude(m)": 558632.9861046996,
        "Argument of Periapsis(deg)": 0.0010457354385337105,
        "Eccentricity": 0.0,
        "Inclination(deg)": 53.0,
        "Latitude(deg)": 47.61838147977933,
        "Longitude(deg)": 80.11457993586394,
        "Mean Anomaly(deg)": 67.33499361067017,
        "RAAN(deg)": 124.99844368976758,
        "Satellite Name": "Starlink Shell 1 554",
        "Satellite Number": 554,
        "Semi-Major Axis(m)": 6931778.249405717,
        "Time(s)": 30
    },
    {
        "Altitude(m)": 558697.7165326846,
        "Argument of Periapsis(deg)": 0.0013943139180449475,
        "Eccentricity": 0.0,
        "Inclination(deg)": 53.0,
        "Latitude(deg)": 47.90136667659079,
        "Longitude(deg)": 80.90351761225268,
        "Mean Anomaly(deg)": 67.96182481422687,
        "RAAN(deg)": 124.99792491969013,
        "Satellite Name": "Starlink Shell 1 554",
        "Satellite Number": 554,
        "Semi-Major Axis(m)": 6931778.249405717,
        "Time(s)": 40
    },
    {
        "Altitude(m)": 558761.1064921377,
        "Argument of Periapsis(deg)": 0.0017428923975561844,
        "Eccentricity": 0.0,
        "Inclination(deg)": 53.0,
        "Latitude(deg)": 48.17827247469211,
        "Longitude(deg)": 81.701447659165,
        "Mean Anomaly(deg)": 68.58865601778359,
        "RAAN(deg)": 124.99740614961264,
        "Satellite Name": "Starlink Shell 1 554",
        "Satellite Number": 554,
        "Semi-Major Axis(m)": 6931778.249405717,
        "Time(s)": 50
    },
    {
        "Altitude(m)": 558823.117076212,
        "Argument of Periapsis(deg)": 0.002091470877067421,
        "Eccentricity": 0.0,
        "Inclination(deg)": 53.0,
        "Latitude(deg)": 48.44897483000591,
        "Longitude(deg)": 82.50835447535758,
        "Mean Anomaly(deg)": 69.21548722134028,
        "RAAN(deg)": 124.99688737953518,
        "Satellite Name": "Starlink Shell 1 554",
        "Satellite Number": 554,
        "Semi-Major Axis(m)": 6931778.249405717,
        "Time(s)": 60
    },
    {
        "Altitude(m)": 558883.7102808136,
        "Argument of Periapsis(deg)": 0.0024400493565786582,
        "Eccentricity": 0.0,
        "Inclination(deg)": 53.0,
        "Latitude(deg)": 48.71334930752173,
        "Longitude(deg)": 83.32421121930862,
        "Mean Anomaly(deg)": 69.84231842489697,
        "RAAN(deg)": 124.9963686094577,
        "Satellite Name": "Starlink Shell 1 554",
        "Satellite Number": 554,
        "Semi-Major Axis(m)": 6931778.249405717,
        "Time(s)": 70
    },
    {
        "Altitude(m)": 558942.8490233724,
        "Argument of Periapsis(deg)": 0.002788627836089895,
        "Eccentricity": 0.0,
        "Inclination(deg)": 53.0,
        "Latitude(deg)": 48.97127125577254,
        "Longitude(deg)": 84.14897825735696,
        "Mean Anomaly(deg)": 70.46914962845372,
        "RAAN(deg)": 124.99584983938023,
        "Satellite Name": "Starlink Shell 1 554",
        "Satellite Number": 554,
        "Semi-Major Axis(m)": 6931778.249405717,
        "Time(s)": 80
    },
    {
        "Altitude(m)": 559000.4971611334,
        "Argument of Periapsis(deg)": 0.0031372063156011316,
        "Eccentricity": 0.0,
        "Inclination(deg)": 53.0,
        "Latitude(deg)": 49.222615992560975,
        "Longitude(deg)": 84.98260313766728,
        "Mean Anomaly(deg)": 71.09598083201043,
        "RAAN(deg)": 124.99533106930275,
        "Satellite Name": "Starlink Shell 1 554",
        "Satellite Number": 554,
        "Semi-Major Axis(m)": 6931778.249405717,
        "Time(s)": 90
    },
    {
        "Altitude(m)": 559056.6195089851,
        "Argument of Periapsis(deg)": 0.0034857847951123688,
        "Eccentricity": 0.0,
        "Inclination(deg)": 53.0,
        "Latitude(deg)": 49.46725900184606,
        "Longitude(deg)": 85.82502058142747,
        "Mean Anomaly(deg)": 71.72281203556715,
        "RAAN(deg)": 124.9948122992253,
        "Satellite Name": "Starlink Shell 1 554",
        "Satellite Number": 554,
        "Semi-Major Axis(m)": 6931778.249405717,
        "Time(s)": 100
    },
    {
        "Altitude(m)": 559111.1818567746,
        "Argument of Periapsis(deg)": 0.003834363274623606,
        "Eccentricity": 0.0,
        "Inclination(deg)": 53.0,
        "Latitude(deg)": 49.70507614161415,
        "Longitude(deg)": 86.6761509829285,
        "Mean Anomaly(deg)": 72.34964323912384,
        "RAAN(deg)": 124.99429352914781,
        "Satellite Name": "Starlink Shell 1 554",
        "Satellite Number": 554,
        "Semi-Major Axis(m)": 6931778.249405717,
        "Time(s)": 110
    },
    {
        "Altitude(m)": 559164.1509861682,
        "Argument of Periapsis(deg)": 0.004182941754134842,
        "Eccentricity": 0.0,
        "Inclination(deg)": 53.0,
        "Latitude(deg)": 49.93594386246447,
        "Longitude(deg)": 87.5359004490298,
        "Mean Anomaly(deg)": 72.97647444268055,
        "RAAN(deg)": 124.99377475907035,
        "Satellite Name": "Starlink Shell 1 554",
        "Satellite Number": 554,
        "Semi-Major Axis(m)": 6931778.249405717,
        "Time(s)": 120
    },
    {
        "Altitude(m)": 559215.4946869782,
        "Argument of Periapsis(deg)": 0.004531520233646079,
        "Eccentricity": 0.0,
        "Inclination(deg)": 53.0,
        "Latitude(deg)": 50.15973943653669,
        "Longitude(deg)": 88.40416087006946,
        "Mean Anomaly(deg)": 73.6033056462373,
        "RAAN(deg)": 124.99325598899287,
        "Satellite Name": "Starlink Shell 1 554",
        "Satellite Number": 554,
        "Semi-Major Axis(m)": 6931778.249405717,
        "Time(s)": 130
    },
    {
        "Altitude(m)": 559265.1817729996,
        "Argument of Periapsis(deg)": 0.0048800987131573164,
        "Eccentricity": 0.0,
        "Inclination(deg)": 53.0,
        "Latitude(deg)": 50.37634119630177,
        "Longitude(deg)": 89.28080851442638,
        "Mean Anomaly(deg)": 74.23013684979401,
        "RAAN(deg)": 124.99273721891538,
        "Satellite Name": "Starlink Shell 1 554",
        "Satellite Number": 554,
        "Semi-Major Axis(m)": 6931778.249405717,
        "Time(s)": 140
    },
    {
        "Altitude(m)": 559313.1820973322,
        "Argument of Periapsis(deg)": 0.005228677192668553,
        "Eccentricity": 0.0,
        "Inclination(deg)": 53.0,
        "Latitude(deg)": 50.58562878262724,
        "Longitude(deg)": 90.16570417767367,
        "Mean Anomaly(deg)": 74.85696805335073,
        "RAAN(deg)": 124.99221844883792,
        "Satellite Name": "Starlink Shell 1 554",
        "Satellite Number": 554,
        "Semi-Major Axis(m)": 6931778.249405717,
        "Time(s)": 150
    },
    {
        "Altitude(m)": 559359.4665671678,
        "Argument of Periapsis(deg)": 0.00557725567217979,
        "Eccentricity": 0.0,
        "Inclination(deg)": 53.0,
        "Latitude(deg)": 50.787483401410014,
        "Longitude(deg)": 91.05869337867536,
        "Mean Anomaly(deg)": 75.48379925690742,
        "RAAN(deg)": 124.99169967876047,
        "Satellite Name": "Starlink Shell 1 554",
        "Satellite Number": 554,
        "Semi-Major Axis(m)": 6931778.249405717,
        "Time(s)": 160
    },
    {
        "Altitude(m)": 559404.0071580751,
        "Argument of Periapsis(deg)": 0.0059258341516910265,
        "Eccentricity": 0.0,
        "Inclination(deg)": 53.0,
        "Latitude(deg)": 50.98178808795269,
        "Longitude(deg)": 91.95960509497189,
        "Mean Anomaly(deg)": 76.11063046046414,
        "RAAN(deg)": 124.99118090868296,
        "Satellite Name": "Starlink Shell 1 554",
        "Satellite Number": 554,
        "Semi-Major Axis(m)": 6931778.249405717,
        "Time(s)": 170
    },
    {
        "Altitude(m)": 559446.7769277343,
        "Argument of Periapsis(deg)": 0.006274412631202263,
        "Eccentricity": 0.0,
        "Inclination(deg)": 53.0,
        "Latitude(deg)": 51.16842797814048,
        "Longitude(deg)": 92.86825206834506,
        "Mean Anomaly(deg)": 76.73746166402087,
        "RAAN(deg)": 124.9906621386055,
        "Satellite Name": "Starlink Shell 1 554",
        "Satellite Number": 554,
        "Semi-Major Axis(m)": 6931778.249405717,
        "Time(s)": 180
    }
]